{
    "links": {
        "self": "http://www.neowsapp.com/rest/v1/neo/54075313?api_key=iIulBulltgU6a56xZRHN4H3l9WmuAYTsLGpBGhQ2"
    },
    "id": "54075313",
    "neo_reference_id": "54075313",
    "name": "(2020 UO1)",
    "designation": "2020 UO1",
    "nasa_jpl_url": "http://ssd.jpl.nasa.gov/sbdb.cgi?sstr=54075313",
    "absolute_magnitude_h": 22.266,
    "estimated_diameter": {
        "kilometers": {
            "estimated_diameter_min": 0.0936170553,
            "estimated_diameter_max": 0.2093340996
        },
        "meters": {
            "estimated_diameter_min": 93.6170553474,
            "estimated_diameter_max": 209.3340996101
        },
        "miles": {
            "estimated_diameter_min": 0.0581709233,
            "estimated_diameter_max": 0.1300741388
        },
        "feet": {
            "estimated_diameter_min": 307.1425798659,
            "estimated_diameter_max": 686.7916873649
        }
    },
    "is_potentially_hazardous_asteroid": false,
    "close_approach_data": [
        {
            "close_approach_date": "2020-10-14",
            "close_approach_date_full": "2020-Oct-14 12:27",
            "epoch_date_close_approach": 1602678420000,
            "relative_velocity": {
                "kilometers_per_second": "26.7945968841",
                "kilometers_per_hour": "96460.5487827431",
                "miles_per_hour": "59936.8337700328"
            },
            "miss_distance": {
                "astronomical": "0.2603666437",
                "lunar": "101.2826243993",
                "kilometers": "38950295.316568919",
                "miles": "24202591.2206483222"
            },
            "orbiting_body": "Earth"
        }
    ],
    "orbital_data": {
        "orbit_id": "2",
        "orbit_determination_date": "2020-10-25 07:37:00",
        "first_observation_date": "2020-10-13",
        "last_observation_date": "2020-10-24",
        "data_arc_in_days": 11,
        "observations_used": 22,
        "orbit_uncertainty": "8",
        "minimum_orbit_intersection": ".232665",
        "jupiter_tisserand_invariant": "2.888",
        "epoch_osculation": "2459137.5",
        "eccentricity": ".498384957831904",
        "semi_major_axis": "2.453438930512775",
        "inclination": "49.90283394596037",
        "ascending_node_longitude": "18.90975942659988",
        "orbital_period": "1403.658000117482",
        "perihelion_distance": "1.230681872586014",
        "perihelion_argument": "358.7976469850717",
        "aphelion_distance": "3.676195988439536",
        "perihelion_time": "2459140.255757415703",
        "mean_anomaly": "359.2932233709564",
        "mean_motion": ".2564727305154597",
        "equinox": "J2000",
        "orbit_class": {
            "orbit_class_type": "AMO",
            "orbit_class_description": "Near-Earth asteroid orbits similar to that of 1221 Amor",
            "orbit_class_range": "1.017 AU < q (perihelion) < 1.3 AU"
        }
    },
    "is_sentry_object": false
}